[{"OBJECT_NAME":"KUIPER-00057","OBJECT_ID":"2025-134T","EPOCH":"2026-03-09T17:50:26.275488","MEAN_MOTION":14.83766269,"ECCENTRICITY":0.00040733,"INCLINATION":51.8993,"RA_OF_ASC_NODE":230.4357,"ARG_OF_PERICENTER":273.9501,"MEAN_ANOMALY":86.0998,"EPHEMERIS_TYPE":0,"CLASSIFICATION_TYPE":"U","NORAD_CAT_ID":64517,"ELEMENT_SET_NO":999,"REV_AT_EPOCH":4011,"BSTAR":0.00072082033,"MEAN_MOTION_DOT":5.801e-5,"MEAN_MOTION_DDOT":0},{"OBJECT_NAME":"SL-14 R\/B","OBJECT_ID":"1985-009B","EPOCH":"2026-03-09T12:31:38.807616","MEAN_MOTION":14.86118469,"ECCENTRICITY":0.00177921,"INCLINATION":82.5198,"RA_OF_ASC_NODE":79.0201,"ARG_OF_PERICENTER":243.1549,"MEAN_ANOMALY":116.7849,"EPHEMERIS_TYPE":0,"CLASSIFICATION_TYPE":"U","NORAD_CAT_ID":15495,"ELEMENT_SET_NO":999,"REV_AT_EPOCH":20162,"BSTAR":6.1904017e-5,"MEAN_MOTION_DOT":5.68e-6,"MEAN_MOTION_DDOT":0}]
